STARLINK-36423          
1 67448U 26008D   26030.91667824 -.01271945  00000+0 -86045-2 0  9994
2 67448  43.0007  62.7194 0001436 274.5544 228.5276 15.76605663  3728
STARLINK-36519          
1 67449U 26008E   26030.91667824 -.01336534  00000+0 -91358-2 0  9994
2 67449  43.0007  62.7135 0001452 269.9861 235.2462 15.76501571  3727
STARLINK-36525          
1 67450U 26008F   26030.91667824 -.01346101  00000+0 -92825-2 0  9997
2 67450  43.0006  62.7073 0001735 268.1038 239.3438 15.76320928  3723
STARLINK-36511          
1 67451U 26008G   26030.91667824 -.01285895  00000+0 -89029-2 0  9992
2 67451  43.0005  62.7023 0001635 268.0255 241.6138 15.76112159  3725
STARLINK-36524          
1 67452U 26008H   26030.91667824 -.01111423  00000+0 -77794-2 0  9994
2 67452  43.0007  62.6965 0001714 274.7209 237.0174 15.75909254  3721
STARLINK-36518          
1 67453U 26008J   26030.91667824  .00060026  00000+0  39154-3 0  9993
2 67453  42.9993  62.3258 0001138 279.3757  17.5837 15.75013344  3740
STARLINK-36517          
1 67454U 26008K   26030.91667824 -.00709920  00000+0 -49029-2 0  9990
2 67454  43.0007  62.6908 0001889 268.7006 245.1844 15.75571236  3742
STARLINK-36516          
1 67455U 26008L   26030.91667824 -.00297548  00000+0 -19849-2 0  9996
2 67455  43.0005  62.6767 0001917 266.0537 253.7806 15.75242068  3725
STARLINK-36493          
1 67456U 26008M   26030.91667824 -.00663129  00000+0 -45625-2 0  9990
2 67456  43.0007  62.6865 0001991 274.7962 241.0337 15.75529910  3720
STARLINK-36529          
1 67457U 26008N   26030.91667824 -.00541708  00000+0 -36942-2 0  9991
2 67457  43.0006  62.6812 0001573 266.3395 251.5044 15.75407796  3723
STARLINK-36528          
1 67458U 26008P   26030.91667824 -.00150801  00000+0 -99457-3 0  9993
2 67458  43.0004  62.6713 0001064 276.3950 245.4260 15.75077997  3745
STARLINK-36546          
1 67459U 26008Q   26030.91667824  .00018052  00000+0  12040-3 0  9996
2 67459  43.0006  62.6661 0001925 265.0025 258.7730 15.75033395  3725
