CCSDS_OMM_VERS = 2.0
CREATION_DATE  = 
ORIGINATOR     = 

OBJECT_NAME    = STARLINK-36423
OBJECT_ID      = 2026-008D
CENTER_NAME    = EARTH
REF_FRAME      = TEME
TIME_SYSTEM    = UTC
MEAN_ELEMENT_THEORY = SGP/SGP4

EPOCH          = 2026-01-30T22:00:00.999936
MEAN_MOTION    = 15.76605663
ECCENTRICITY   = .00014364
INCLINATION    = 43.0007
RA_OF_ASC_NODE = 62.7194
ARG_OF_PERICENTER = 274.5544
MEAN_ANOMALY   = 228.5276

EPHEMERIS_TYPE = 0
CLASSIFICATION_TYPE = U
NORAD_CAT_ID   = 67448
ELEMENT_SET_NO = 999
REV_AT_EPOCH   = 372
BSTAR          = -.860448E-2
MEAN_MOTION_DOT = -.1271945E-1
MEAN_MOTION_DDOT = 0

CCSDS_OMM_VERS = 2.0
CREATION_DATE  = 
ORIGINATOR     = 

OBJECT_NAME    = STARLINK-36519
OBJECT_ID      = 2026-008E
CENTER_NAME    = EARTH
REF_FRAME      = TEME
TIME_SYSTEM    = UTC
MEAN_ELEMENT_THEORY = SGP/SGP4

EPOCH          = 2026-01-30T22:00:00.999936
MEAN_MOTION    = 15.76501571
ECCENTRICITY   = .00014522
INCLINATION    = 43.0007
RA_OF_ASC_NODE = 62.7135
ARG_OF_PERICENTER = 269.9861
MEAN_ANOMALY   = 235.2462

EPHEMERIS_TYPE = 0
CLASSIFICATION_TYPE = U
NORAD_CAT_ID   = 67449
ELEMENT_SET_NO = 999
REV_AT_EPOCH   = 372
BSTAR          = -.91358164E-2
MEAN_MOTION_DOT = -.1336534E-1
MEAN_MOTION_DDOT = 0

CCSDS_OMM_VERS = 2.0
CREATION_DATE  = 
ORIGINATOR     = 

OBJECT_NAME    = STARLINK-36525
OBJECT_ID      = 2026-008F
CENTER_NAME    = EARTH
REF_FRAME      = TEME
TIME_SYSTEM    = UTC
MEAN_ELEMENT_THEORY = SGP/SGP4

EPOCH          = 2026-01-30T22:00:00.999936
MEAN_MOTION    = 15.76320928
ECCENTRICITY   = .00017353
INCLINATION    = 43.0006
RA_OF_ASC_NODE = 62.7073
ARG_OF_PERICENTER = 268.1038
MEAN_ANOMALY   = 239.3438

EPHEMERIS_TYPE = 0
CLASSIFICATION_TYPE = U
NORAD_CAT_ID   = 67450
ELEMENT_SET_NO = 999
REV_AT_EPOCH   = 372
BSTAR          = -.92825326E-2
MEAN_MOTION_DOT = -.1346101E-1
MEAN_MOTION_DDOT = 0

CCSDS_OMM_VERS = 2.0
CREATION_DATE  = 
ORIGINATOR     = 

OBJECT_NAME    = STARLINK-36511
OBJECT_ID      = 2026-008G
CENTER_NAME    = EARTH
REF_FRAME      = TEME
TIME_SYSTEM    = UTC
MEAN_ELEMENT_THEORY = SGP/SGP4

EPOCH          = 2026-01-30T22:00:00.999936
MEAN_MOTION    = 15.76112159
ECCENTRICITY   = .00016359
INCLINATION    = 43.0005
RA_OF_ASC_NODE = 62.7023
ARG_OF_PERICENTER = 268.0255
MEAN_ANOMALY   = 241.6138

EPHEMERIS_TYPE = 0
CLASSIFICATION_TYPE = U
NORAD_CAT_ID   = 67451
ELEMENT_SET_NO = 999
REV_AT_EPOCH   = 372
BSTAR          = -.89029009E-2
MEAN_MOTION_DOT = -.1285895E-1
MEAN_MOTION_DDOT = 0

CCSDS_OMM_VERS = 2.0
CREATION_DATE  = 
ORIGINATOR     = 

OBJECT_NAME    = STARLINK-36524
OBJECT_ID      = 2026-008H
CENTER_NAME    = EARTH
REF_FRAME      = TEME
TIME_SYSTEM    = UTC
MEAN_ELEMENT_THEORY = SGP/SGP4

EPOCH          = 2026-01-30T22:00:00.999936
MEAN_MOTION    = 15.75909254
ECCENTRICITY   = .00017143
INCLINATION    = 43.0007
RA_OF_ASC_NODE = 62.6965
ARG_OF_PERICENTER = 274.7209
MEAN_ANOMALY   = 237.0174

EPHEMERIS_TYPE = 0
CLASSIFICATION_TYPE = U
NORAD_CAT_ID   = 67452
ELEMENT_SET_NO = 999
REV_AT_EPOCH   = 372
BSTAR          = -.77794462E-2
MEAN_MOTION_DOT = -.1111423E-1
MEAN_MOTION_DDOT = 0

CCSDS_OMM_VERS = 2.0
CREATION_DATE  = 
ORIGINATOR     = 

OBJECT_NAME    = STARLINK-36518
OBJECT_ID      = 2026-008J
CENTER_NAME    = EARTH
REF_FRAME      = TEME
TIME_SYSTEM    = UTC
MEAN_ELEMENT_THEORY = SGP/SGP4

EPOCH          = 2026-01-30T22:00:00.999936
MEAN_MOTION    = 15.75013344
ECCENTRICITY   = .00011384
INCLINATION    = 42.9993
RA_OF_ASC_NODE = 62.3258
ARG_OF_PERICENTER = 279.3757
MEAN_ANOMALY   = 17.5837

EPHEMERIS_TYPE = 0
CLASSIFICATION_TYPE = U
NORAD_CAT_ID   = 67453
ELEMENT_SET_NO = 999
REV_AT_EPOCH   = 374
BSTAR          = .39153514E-3
MEAN_MOTION_DOT = .60026E-3
MEAN_MOTION_DDOT = 0

CCSDS_OMM_VERS = 2.0
CREATION_DATE  = 
ORIGINATOR     = 

OBJECT_NAME    = STARLINK-36517
OBJECT_ID      = 2026-008K
CENTER_NAME    = EARTH
REF_FRAME      = TEME
TIME_SYSTEM    = UTC
MEAN_ELEMENT_THEORY = SGP/SGP4

EPOCH          = 2026-01-30T22:00:00.999936
MEAN_MOTION    = 15.75571236
ECCENTRICITY   = .00018896
INCLINATION    = 43.0007
RA_OF_ASC_NODE = 62.6908
ARG_OF_PERICENTER = 268.7006
MEAN_ANOMALY   = 245.1844

EPHEMERIS_TYPE = 0
CLASSIFICATION_TYPE = U
NORAD_CAT_ID   = 67454
ELEMENT_SET_NO = 999
REV_AT_EPOCH   = 374
BSTAR          = -.49028701E-2
MEAN_MOTION_DOT = -.70992E-2
MEAN_MOTION_DDOT = 0

CCSDS_OMM_VERS = 2.0
CREATION_DATE  = 
ORIGINATOR     = 

OBJECT_NAME    = STARLINK-36516
OBJECT_ID      = 2026-008L
CENTER_NAME    = EARTH
REF_FRAME      = TEME
TIME_SYSTEM    = UTC
MEAN_ELEMENT_THEORY = SGP/SGP4

EPOCH          = 2026-01-30T22:00:00.999936
MEAN_MOTION    = 15.75242068
ECCENTRICITY   = .00019172
INCLINATION    = 43.0005
RA_OF_ASC_NODE = 62.6767
ARG_OF_PERICENTER = 266.0537
MEAN_ANOMALY   = 253.7806

EPHEMERIS_TYPE = 0
CLASSIFICATION_TYPE = U
NORAD_CAT_ID   = 67455
ELEMENT_SET_NO = 999
REV_AT_EPOCH   = 372
BSTAR          = -.19849429E-2
MEAN_MOTION_DOT = -.297548E-2
MEAN_MOTION_DDOT = 0

CCSDS_OMM_VERS = 2.0
CREATION_DATE  = 
ORIGINATOR     = 

OBJECT_NAME    = STARLINK-36493
OBJECT_ID      = 2026-008M
CENTER_NAME    = EARTH
REF_FRAME      = TEME
TIME_SYSTEM    = UTC
MEAN_ELEMENT_THEORY = SGP/SGP4

EPOCH          = 2026-01-30T22:00:00.999936
MEAN_MOTION    = 15.75529910
ECCENTRICITY   = .00019913
INCLINATION    = 43.0007
RA_OF_ASC_NODE = 62.6865
ARG_OF_PERICENTER = 274.7962
MEAN_ANOMALY   = 241.0337

EPHEMERIS_TYPE = 0
CLASSIFICATION_TYPE = U
NORAD_CAT_ID   = 67456
ELEMENT_SET_NO = 999
REV_AT_EPOCH   = 372
BSTAR          = -.45624952E-2
MEAN_MOTION_DOT = -.663129E-2
MEAN_MOTION_DDOT = 0

CCSDS_OMM_VERS = 2.0
CREATION_DATE  = 
ORIGINATOR     = 

OBJECT_NAME    = STARLINK-36529
OBJECT_ID      = 2026-008N
CENTER_NAME    = EARTH
REF_FRAME      = TEME
TIME_SYSTEM    = UTC
MEAN_ELEMENT_THEORY = SGP/SGP4

EPOCH          = 2026-01-30T22:00:00.999936
MEAN_MOTION    = 15.75407796
ECCENTRICITY   = .00015731
INCLINATION    = 43.0006
RA_OF_ASC_NODE = 62.6812
ARG_OF_PERICENTER = 266.3395
MEAN_ANOMALY   = 251.5044

EPHEMERIS_TYPE = 0
CLASSIFICATION_TYPE = U
NORAD_CAT_ID   = 67457
ELEMENT_SET_NO = 999
REV_AT_EPOCH   = 372
BSTAR          = -.36942226E-2
MEAN_MOTION_DOT = -.541708E-2
MEAN_MOTION_DDOT = 0

CCSDS_OMM_VERS = 2.0
CREATION_DATE  = 
ORIGINATOR     = 

OBJECT_NAME    = STARLINK-36528
OBJECT_ID      = 2026-008P
CENTER_NAME    = EARTH
REF_FRAME      = TEME
TIME_SYSTEM    = UTC
MEAN_ELEMENT_THEORY = SGP/SGP4

EPOCH          = 2026-01-30T22:00:00.999936
MEAN_MOTION    = 15.75077997
ECCENTRICITY   = .0001064
INCLINATION    = 43.0004
RA_OF_ASC_NODE = 62.6713
ARG_OF_PERICENTER = 276.3950
MEAN_ANOMALY   = 245.4260

EPHEMERIS_TYPE = 0
CLASSIFICATION_TYPE = U
NORAD_CAT_ID   = 67458
ELEMENT_SET_NO = 999
REV_AT_EPOCH   = 374
BSTAR          = -.99456702E-3
MEAN_MOTION_DOT = -.150801E-2
MEAN_MOTION_DDOT = 0

CCSDS_OMM_VERS = 2.0
CREATION_DATE  = 
ORIGINATOR     = 

OBJECT_NAME    = STARLINK-36546
OBJECT_ID      = 2026-008Q
CENTER_NAME    = EARTH
REF_FRAME      = TEME
TIME_SYSTEM    = UTC
MEAN_ELEMENT_THEORY = SGP/SGP4

EPOCH          = 2026-01-30T22:00:00.999936
MEAN_MOTION    = 15.75033395
ECCENTRICITY   = .00019258
INCLINATION    = 43.0006
RA_OF_ASC_NODE = 62.6661
ARG_OF_PERICENTER = 265.0025
MEAN_ANOMALY   = 258.7730

EPHEMERIS_TYPE = 0
CLASSIFICATION_TYPE = U
NORAD_CAT_ID   = 67459
ELEMENT_SET_NO = 999
REV_AT_EPOCH   = 372
BSTAR          = .12039883E-3
MEAN_MOTION_DOT = .18052E-3
MEAN_MOTION_DDOT = 0

